{
  "type": "FeatureCollection",
  "features": [
    {
      "type": "Feature",
      "properties": {
        "norad_id": 42989,
        "name": "SKYSAT-C9",
        "group": "resource",
        "lat": -19.488009399016782,
        "lon": 134.49103016479964,
        "alt_km": 458.40531302443924,
        "timestamp": "2025-12-27T11:23:19.534983+00:00",
        "meta_object_name": "SKYSAT-C9",
        "meta_object_id": "2017-068C",
        "meta_epoch": "2025-12-27T03:39:31.050144",
        "meta_mean_motion": 15.3642003,
        "meta_eccentricity": 0.0010183,
        "meta_inclination": 97.4191,
        "meta_ra_of_asc_node": 131.5232,
        "meta_arg_of_pericenter": 41.2773,
        "meta_mean_anomaly": 318.9239,
        "meta_ephemeris_type": 0,
        "meta_classification_type": "U",
        "meta_norad_cat_id": 42989,
        "meta_element_set_no": 999,
        "meta_rev_at_epoch": 45629,
        "meta_bstar": 0.00042027,
        "meta_mean_motion_dot": 0.00014885,
        "meta_mean_motion_ddot": 0,
        "tle_line1": "1 42989U 17068C   25361.15244271  .00014885  00000+0  42027-3 0  9990",
        "tle_line2": "2 42989  97.4191 131.5232 0010183  41.2773 318.9239 15.36420030456294"
      },
      "geometry": {
        "type": "Point",
        "coordinates": [
          134.49103016479964,
          -19.488009399016782
        ]
      }
    },
    {
      "type": "Feature",
      "properties": {
        "norad_id": 42990,
        "name": "SKYSAT-C8",
        "group": "resource",
        "lat": 35.18595549587177,
        "lon": -43.17970845557119,
        "alt_km": 464.0537422778525,
        "timestamp": "2025-12-27T11:23:19.534994+00:00",
        "meta_object_name": "SKYSAT-C8",
        "meta_object_id": "2017-068D",
        "meta_epoch": "2025-12-26T20:39:51.011712",
        "meta_mean_motion": 15.33236575,
        "meta_eccentricity": 9.59e-05,
        "meta_inclination": 97.4287,
        "meta_ra_of_asc_node": 130.9255,
        "meta_arg_of_pericenter": 255.1307,
        "meta_mean_anomaly": 104.9829,
        "meta_ephemeris_type": 0,
        "meta_classification_type": "U",
        "meta_norad_cat_id": 42990,
        "meta_element_set_no": 999,
        "meta_rev_at_epoch": 45587,
        "meta_bstar": 0.00042835,
        "meta_mean_motion_dot": 0.00013686,
        "meta_mean_motion_ddot": 0,
        "tle_line1": "1 42990U 17068D   25360.86100708  .00013686  00000+0  42835-3 0  9990",
        "tle_line2": "2 42990  97.4287 130.9255 0000959 255.1307 104.9829 15.33236575455876"
      },
      "geometry": {
        "type": "Point",
        "coordinates": [
          -43.17970845557119,
          35.18595549587177
        ]
      }
    },
    {
      "type": "Feature",
      "properties": {
        "norad_id": 42991,
        "name": "SKYSAT-C7",
        "group": "resource",
        "lat": -31.863312762739927,
        "lon": 137.22354350803437,
        "alt_km": 470.67773944769124,
        "timestamp": "2025-12-27T11:23:19.535004+00:00",
        "meta_object_name": "SKYSAT-C7",
        "meta_object_id": "2017-068E",
        "meta_epoch": "2025-12-27T02:07:37.343424",
        "meta_mean_motion": 15.32635076,
        "meta_eccentricity": 0.0006689,
        "meta_inclination": 97.4294,
        "meta_ra_of_asc_node": 132.1839,
        "meta_arg_of_pericenter": 11.2611,
        "meta_mean_anomaly": 348.878,
        "meta_ephemeris_type": 0,
        "meta_classification_type": "U",
        "meta_norad_cat_id": 42991,
        "meta_element_set_no": 999,
        "meta_rev_at_epoch": 45597,
        "meta_bstar": 0.0003983,
        "meta_mean_motion_dot": 0.00012488,
        "meta_mean_motion_ddot": 0,
        "tle_line1": "1 42991U 17068E   25361.08862666  .00012488  00000+0  39830-3 0  9994",
        "tle_line2": "2 42991  97.4294 132.1839 0006689  11.2611 348.8780 15.32635076455976"
      },
      "geometry": {
        "type": "Point",
        "coordinates": [
          137.22354350803437,
          -31.863312762739927
        ]
      }
    },
    {
      "type": "Feature",
      "properties": {
        "norad_id": 42992,
        "name": "SKYSAT-C6",
        "group": "resource",
        "lat": 39.83698190206596,
        "lon": 126.74513673630943,
        "alt_km": 464.2406476841288,
        "timestamp": "2025-12-27T11:23:19.535015+00:00",
        "meta_object_name": "SKYSAT-C6",
        "meta_object_id": "2017-068F",
        "meta_epoch": "2025-12-26T21:06:12.822048",
        "meta_mean_motion": 15.31783145,
        "meta_eccentricity": 0.0004677,
        "meta_inclination": 97.4325,
        "meta_ra_of_asc_node": 132.4006,
        "meta_arg_of_pericenter": 43.8732,
        "meta_mean_anomaly": 316.288,
        "meta_ephemeris_type": 0,
        "meta_classification_type": "U",
        "meta_norad_cat_id": 42992,
        "meta_element_set_no": 999,
        "meta_rev_at_epoch": 45592,
        "meta_bstar": 0.00040064,
        "meta_mean_motion_dot": 0.00012227,
        "meta_mean_motion_ddot": 0,
        "tle_line1": "1 42992U 17068F   25360.87931507  .00012227  00000+0  40064-3 0  9994",
        "tle_line2": "2 42992  97.4325 132.4006 0004677  43.8732 316.2880 15.31783145455926"
      },
      "geometry": {
        "type": "Point",
        "coordinates": [
          126.74513673630943,
          39.83698190206596
        ]
      }
    },
    {
      "type": "Feature",
      "properties": {
        "norad_id": 43111,
        "name": "CARTOSAT-2F",
        "group": "resource",
        "lat": -30.64253271771817,
        "lon": -125.56185532452437,
        "alt_km": 514.3061428461633,
        "timestamp": "2025-12-27T11:23:19.535025+00:00",
        "meta_object_name": "CARTOSAT-2F",
        "meta_object_id": "2018-004A",
        "meta_epoch": "2025-12-27T04:08:27.234816",
        "meta_mean_motion": 15.19265297,
        "meta_eccentricity": 0.0001572,
        "meta_inclination": 97.4297,
        "meta_ra_of_asc_node": 58.5748,
        "meta_arg_of_pericenter": 112.2002,
        "meta_mean_anomaly": 247.9399,
        "meta_ephemeris_type": 0,
        "meta_classification_type": "U",
        "meta_norad_cat_id": 43111,
        "meta_element_set_no": 999,
        "meta_rev_at_epoch": 44121,
        "meta_bstar": 0.00022779,
        "meta_mean_motion_dot": 4.735e-05,
        "meta_mean_motion_ddot": 0,
        "tle_line1": "1 43111U 18004A   25361.17253744  .00004735  00000+0  22779-3 0  9991",
        "tle_line2": "2 43111  97.4297  58.5748 0001572 112.2002 247.9399 15.19265297441212"
      },
      "geometry": {
        "type": "Point",
        "coordinates": [
          -125.56185532452437,
          -30.64253271771817
        ]
      }
    },
    {
      "type": "Feature",
      "properties": {
        "norad_id": 43259,
        "name": "GAOFEN-1 02",
        "group": "resource",
        "lat": -49.22966782460731,
        "lon": -130.21335493948848,
        "alt_km": 646.6256364767742,
        "timestamp": "2025-12-27T11:23:19.535035+00:00",
        "meta_object_name": "GAOFEN-1 02",
        "meta_object_id": "2018-031A",
        "meta_epoch": "2025-12-27T05:28:17.815008",
        "meta_mean_motion": 14.76445038,
        "meta_eccentricity": 0.0002771,
        "meta_inclination": 98.0783,
        "meta_ra_of_asc_node": 59.0208,
        "meta_arg_of_pericenter": 165.6371,
        "meta_mean_anomaly": 194.4918,
        "meta_ephemeris_type": 0,
        "meta_classification_type": "U",
        "meta_norad_cat_id": 43259,
        "meta_element_set_no": 999,
        "meta_rev_at_epoch": 41732,
        "meta_bstar": 0.00014061,
        "meta_mean_motion_dot": 9.26e-06,
        "meta_mean_motion_ddot": 0,
        "tle_line1": "1 43259U 18031A   25361.22798397  .00000926  00000+0  14061-3 0  9991",
        "tle_line2": "2 43259  98.0783  59.0208 0002771 165.6371 194.4918 14.76445038417325"
      },
      "geometry": {
        "type": "Point",
        "coordinates": [
          -130.21335493948848,
          -49.22966782460731
        ]
      }
    },
    {
      "type": "Feature",
      "properties": {
        "norad_id": 43260,
        "name": "GAOFEN-1 03",
        "group": "resource",
        "lat": -14.065578502250832,
        "lon": 61.18255941456606,
        "alt_km": 645.4380316888673,
        "timestamp": "2025-12-27T11:23:19.535046+00:00",
        "meta_object_name": "GAOFEN-1 03",
        "meta_object_id": "2018-031B",
        "meta_epoch": "2025-12-27T04:56:48.712704",
        "meta_mean_motion": 14.76428983,
        "meta_eccentricity": 0.0001669,
        "meta_inclination": 98.0778,
        "meta_ra_of_asc_node": 58.875,
        "meta_arg_of_pericenter": 248.1021,
        "meta_mean_anomaly": 112.0011,
        "meta_ephemeris_type": 0,
        "meta_classification_type": "U",
        "meta_norad_cat_id": 43260,
        "meta_element_set_no": 999,
        "meta_rev_at_epoch": 41731,
        "meta_bstar": 0.00016209,
        "meta_mean_motion_dot": 1.075e-05,
        "meta_mean_motion_ddot": 0,
        "tle_line1": "1 43260U 18031B   25361.20611936  .00001075  00000+0  16209-3 0  9996",
        "tle_line2": "2 43260  98.0778  58.8750 0001669 248.1021 112.0011 14.76428983417313"
      },
      "geometry": {
        "type": "Point",
        "coordinates": [
          61.18255941456606,
          -14.065578502250832
        ]
      }
    }
  ]
}